[{"COMMENT":"GENERATED VIA SPACETRACK.ORG API","ORIGINATOR":"18 SPCS","NORAD_CAT_ID":"43477","OBJECT_NAME":"GRACE-FO 2","OBJECT_TYPE":"PAYLOAD","CLASSIFICATION_TYPE":"U","INTLDES":"18047B","EPOCH":"2023-10-02 20:32:28","EPOCH_MICROSECONDS":"917600","MEAN_MOTION":"15.26941233","ECCENTRICITY":"0.0013089","INCLINATION":"88.988","RA_OF_ASC_NODE":"334.5519","ARG_OF_PERICENTER":"355.776","MEAN_ANOMALY":"4.3376","EPHEMERIS_TYPE":"0","ELEMENT_SET_NO":"999","REV_AT_EPOCH":"29842","BSTAR":"0.00018741","MEAN_MOTION_DOT":"0.00004994","MEAN_MOTION_DDOT":"0","FILE":"4022855","TLE_LINE0":"0 GRACE-FO 2","TLE_LINE1":"1 43477U 18047B   23275.85589025  .00004994  00000-0  18741-3 0  9996","TLE_LINE2":"2 43477  88.9880 334.5519 0013089 355.7760   4.3376 15.26941233298426","OBJECT_ID":"2018-047B","OBJECT_NUMBER":"43477","SEMIMAJOR_AXIS":"6863.099","PERIOD":"94.306","APOGEE":"493.948","PERIGEE":"475.981","DECAYED":"0"},{"COMMENT":"GENERATED VIA SPACETRACK.ORG API","ORIGINATOR":"18 SPCS","NORAD_CAT_ID":"43477","OBJECT_NAME":"GRACE-FO 2","OBJECT_TYPE":"PAYLOAD","CLASSIFICATION_TYPE":"U","INTLDES":"18047B","EPOCH":"2023-10-03 13:50:34","EPOCH_MICROSECONDS":"357056","MEAN_MOTION":"15.26947428","ECCENTRICITY":"0.0012951","INCLINATION":"88.9878","RA_OF_ASC_NODE":"334.4537","ARG_OF_PERICENTER":"352.9367","MEAN_ANOMALY":"7.1697","EPHEMERIS_TYPE":"0","ELEMENT_SET_NO":"999","REV_AT_EPOCH":"29853","BSTAR":"0.00017665","MEAN_MOTION_DOT":"0.00004709","MEAN_MOTION_DDOT":"0","FILE":"4023690","TLE_LINE0":"0 GRACE-FO 2","TLE_LINE1":"1 43477U 18047B   23276.57678654  .00004709  00000-0  17665-3 0  9991","TLE_LINE2":"2 43477  88.9878 334.4537 0012951 352.9367   7.1697 15.26947428298532","OBJECT_ID":"2018-047B","OBJECT_NUMBER":"43477","SEMIMAJOR_AXIS":"6863.081","PERIOD":"94.306","APOGEE":"493.834","PERIGEE":"476.058","DECAYED":"0"},{"COMMENT":"GENERATED VIA SPACETRACK.ORG API","ORIGINATOR":"18 SPCS","NORAD_CAT_ID":"43477","OBJECT_NAME":"GRACE-FO 2","OBJECT_TYPE":"PAYLOAD","CLASSIFICATION_TYPE":"U","INTLDES":"18047B","EPOCH":"2023-10-03 21:42:25","EPOCH_MICROSECONDS":"808832","MEAN_MOTION":"15.2695115","ECCENTRICITY":"0.0012887","INCLINATION":"88.9877","RA_OF_ASC_NODE":"334.409","ARG_OF_PERICENTER":"351.6325","MEAN_ANOMALY":"8.4707","EPHEMERIS_TYPE":"0","ELEMENT_SET_NO":"999","REV_AT_EPOCH":"29858","BSTAR":"0.00018591","MEAN_MOTION_DOT":"0.00004955","MEAN_MOTION_DDOT":"0","FILE":"4023936","TLE_LINE0":"0 GRACE-FO 2","TLE_LINE1":"1 43477U 18047B   23276.90446538  .00004955  00000-0  18591-3 0  9994","TLE_LINE2":"2 43477  88.9877 334.4090 0012887 351.6325   8.4707 15.26951150298581","OBJECT_ID":"2018-047B","OBJECT_NUMBER":"43477","SEMIMAJOR_AXIS":"6863.070","PERIOD":"94.306","APOGEE":"493.779","PERIGEE":"476.090","DECAYED":"0"},{"COMMENT":"GENERATED VIA SPACETRACK.ORG API","ORIGINATOR":"18 SPCS","NORAD_CAT_ID":"43477","OBJECT_NAME":"GRACE-FO 2","OBJECT_TYPE":"PAYLOAD","CLASSIFICATION_TYPE":"U","INTLDES":"18047B","EPOCH":"2023-10-04 03:59:54","EPOCH_MICROSECONDS":"921696","MEAN_MOTION":"15.26954324","ECCENTRICITY":"0.0012829","INCLINATION":"88.9876","RA_OF_ASC_NODE":"334.3733","ARG_OF_PERICENTER":"350.5821","MEAN_ANOMALY":"9.5185","EPHEMERIS_TYPE":"0","ELEMENT_SET_NO":"999","REV_AT_EPOCH":"29862","BSTAR":"0.00019384","MEAN_MOTION_DOT":"0.00005166","MEAN_MOTION_DDOT":"0","FILE":"4024092","TLE_LINE0":"0 GRACE-FO 2","TLE_LINE1":"1 43477U 18047B   23277.16660789  .00005166  00000-0  19384-3 0  9995","TLE_LINE2":"2 43477  88.9876 334.3733 0012829 350.5821   9.5185 15.26954324298621","OBJECT_ID":"2018-047B","OBJECT_NUMBER":"43477","SEMIMAJOR_AXIS":"6863.060","PERIOD":"94.305","APOGEE":"493.730","PERIGEE":"476.121","DECAYED":"0"},{"COMMENT":"GENERATED VIA SPACETRACK.ORG API","ORIGINATOR":"18 SPCS","NORAD_CAT_ID":"43477","OBJECT_NAME":"GRACE-FO 2","OBJECT_TYPE":"PAYLOAD","CLASSIFICATION_TYPE":"U","INTLDES":"18047B","EPOCH":"2023-10-04 13:26:08","EPOCH_MICROSECONDS":"524032","MEAN_MOTION":"15.26958577","ECCENTRICITY":"0.0012743","INCLINATION":"88.9876","RA_OF_ASC_NODE":"334.3197","ARG_OF_PERICENTER":"348.9645","MEAN_ANOMALY":"11.1323","EPHEMERIS_TYPE":"0","ELEMENT_SET_NO":"999","REV_AT_EPOCH":"29868","BSTAR":"0.00019767","MEAN_MOTION_DOT":"0.00005268","MEAN_MOTION_DDOT":"0","FILE":"4024487","TLE_LINE0":"0 GRACE-FO 2","TLE_LINE1":"1 43477U 18047B   23277.55982088  .00005268  00000-0  19767-3 0  9995","TLE_LINE2":"2 43477  88.9876 334.3197 0012743 348.9645  11.1323 15.26958577298688","OBJECT_ID":"2018-047B","OBJECT_NUMBER":"43477","SEMIMAJOR_AXIS":"6863.047","PERIOD":"94.305","APOGEE":"493.658","PERIGEE":"476.167","DECAYED":"0"},{"COMMENT":"GENERATED VIA SPACETRACK.ORG API","ORIGINATOR":"18 SPCS","NORAD_CAT_ID":"43477","OBJECT_NAME":"GRACE-FO 2","OBJECT_TYPE":"PAYLOAD","CLASSIFICATION_TYPE":"U","INTLDES":"18047B","EPOCH":"2023-10-04 21:17:59","EPOCH_MICROSECONDS":"784000","MEAN_MOTION":"15.26961976","ECCENTRICITY":"0.0012657","INCLINATION":"88.9875","RA_OF_ASC_NODE":"334.2751","ARG_OF_PERICENTER":"347.6608","MEAN_ANOMALY":"12.433","EPHEMERIS_TYPE":"0","ELEMENT_SET_NO":"999","REV_AT_EPOCH":"29873","BSTAR":"0.00019698","MEAN_MOTION_DOT":"0.0000525","MEAN_MOTION_DDOT":"0","FILE":"4024820","TLE_LINE0":"0 GRACE-FO 2","TLE_LINE1":"1 43477U 18047B   23277.88749750  .00005250  00000-0  19698-3 0  9992","TLE_LINE2":"2 43477  88.9875 334.2751 0012657 347.6608  12.4330 15.26961976298736","OBJECT_ID":"2018-047B","OBJECT_NUMBER":"43477","SEMIMAJOR_AXIS":"6863.037","PERIOD":"94.305","APOGEE":"493.589","PERIGEE":"476.216","DECAYED":"0"},{"COMMENT":"GENERATED VIA SPACETRACK.ORG API","ORIGINATOR":"18 SPCS","NORAD_CAT_ID":"43477","OBJECT_NAME":"GRACE-FO 2","OBJECT_TYPE":"PAYLOAD","CLASSIFICATION_TYPE":"U","INTLDES":"18047B","EPOCH":"2023-10-05 09:52:57","EPOCH_MICROSECONDS":"639936","MEAN_MOTION":"15.26968544","ECCENTRICITY":"0.001256","INCLINATION":"88.9875","RA_OF_ASC_NODE":"334.2037","ARG_OF_PERICENTER":"345.5624","MEAN_ANOMALY":"14.5264","EPHEMERIS_TYPE":"0","ELEMENT_SET_NO":"999","REV_AT_EPOCH":"29881","BSTAR":"0.00021009","MEAN_MOTION_DOT":"0.00005598","MEAN_MOTION_DDOT":"0","FILE":"4025204","TLE_LINE0":"0 GRACE-FO 2","TLE_LINE1":"1 43477U 18047B   23278.41177824  .00005598  00000-0  21009-3 0  9993","TLE_LINE2":"2 43477  88.9875 334.2037 0012560 345.5624  14.5264 15.26968544298817","OBJECT_ID":"2018-047B","OBJECT_NUMBER":"43477","SEMIMAJOR_AXIS":"6863.018","PERIOD":"94.304","APOGEE":"493.503","PERIGEE":"476.263","DECAYED":"0"},{"COMMENT":"GENERATED VIA SPACETRACK.ORG API","ORIGINATOR":"18 SPCS","NORAD_CAT_ID":"43477","OBJECT_NAME":"GRACE-FO 2","OBJECT_TYPE":"PAYLOAD","CLASSIFICATION_TYPE":"U","INTLDES":"18047B","EPOCH":"2023-10-05 14:36:04","EPOCH_MICROSECONDS":"292064","MEAN_MOTION":"15.26970774","ECCENTRICITY":"0.0012522","INCLINATION":"88.9875","RA_OF_ASC_NODE":"334.177","ARG_OF_PERICENTER":"344.7488","MEAN_ANOMALY":"15.3381","EPHEMERIS_TYPE":"0","ELEMENT_SET_NO":"999","REV_AT_EPOCH":"29884","BSTAR":"0.00020737","MEAN_MOTION_DOT":"0.00005526","MEAN_MOTION_DDOT":"0","FILE":"4025515","TLE_LINE0":"0 GRACE-FO 2","TLE_LINE1":"1 43477U 18047B   23278.60838301  .00005526  00000-0  20737-3 0  9996","TLE_LINE2":"2 43477  88.9875 334.1770 0012522 344.7488  15.3381 15.26970774298847","OBJECT_ID":"2018-047B","OBJECT_NUMBER":"43477","SEMIMAJOR_AXIS":"6863.011","PERIOD":"94.304","APOGEE":"493.470","PERIGEE":"476.282","DECAYED":"0"},{"COMMENT":"GENERATED VIA SPACETRACK.ORG API","ORIGINATOR":"18 SPCS","NORAD_CAT_ID":"43477","OBJECT_NAME":"GRACE-FO 2","OBJECT_TYPE":"PAYLOAD","CLASSIFICATION_TYPE":"U","INTLDES":"18047B","EPOCH":"2023-10-05 20:53:33","EPOCH_MICROSECONDS":"134496","MEAN_MOTION":"15.26973029","ECCENTRICITY":"0.0012463","INCLINATION":"88.9876","RA_OF_ASC_NODE":"334.1413","ARG_OF_PERICENTER":"343.6657","MEAN_ANOMALY":"16.4189","EPHEMERIS_TYPE":"0","ELEMENT_SET_NO":"999","REV_AT_EPOCH":"29888","BSTAR":"0.00019731","MEAN_MOTION_DOT":"0.0000526","MEAN_MOTION_DDOT":"0","FILE":"4025843","TLE_LINE0":"0 GRACE-FO 2","TLE_LINE1":"1 43477U 18047B   23278.87052239  .00005260  00000-0  19731-3 0  9990","TLE_LINE2":"2 43477  88.9876 334.1413 0012463 343.6657  16.4189 15.26973029298880","OBJECT_ID":"2018-047B","OBJECT_NUMBER":"43477","SEMIMAJOR_AXIS":"6863.004","PERIOD":"94.304","APOGEE":"493.423","PERIGEE":"476.316","DECAYED":"0"},{"COMMENT":"GENERATED VIA SPACETRACK.ORG API","ORIGINATOR":"18 SPCS","NORAD_CAT_ID":"43477","OBJECT_NAME":"GRACE-FO 2","OBJECT_TYPE":"PAYLOAD","CLASSIFICATION_TYPE":"U","INTLDES":"18047B","EPOCH":"2023-10-06 11:02:52","EPOCH_MICROSECONDS":"890432","MEAN_MOTION":"15.26979195","ECCENTRICITY":"0.0012365","INCLINATION":"88.9876","RA_OF_ASC_NODE":"334.061","ARG_OF_PERICENTER":"341.2582","MEAN_ANOMALY":"18.8211","EPHEMERIS_TYPE":"0","ELEMENT_SET_NO":"999","REV_AT_EPOCH":"29897","BSTAR":"0.00019624","MEAN_MOTION_DOT":"0.00005232","MEAN_MOTION_DDOT":"0","FILE":"4026142","TLE_LINE0":"0 GRACE-FO 2","TLE_LINE1":"1 43477U 18047B   23279.46033438  .00005232  00000-0  19624-3 0  9996","TLE_LINE2":"2 43477  88.9876 334.0610 0012365 341.2582  18.8211 15.26979195298972","OBJECT_ID":"2018-047B","OBJECT_NUMBER":"43477","SEMIMAJOR_AXIS":"6862.986","PERIOD":"94.304","APOGEE":"493.337","PERIGEE":"476.365","DECAYED":"0"}]